ORBCOMM FM33            
1 25983U 99065D   25024.52494755  .00004052  00000+0  13365-2 0  9990
2 25983  45.0295 321.6840 0008806  48.9398 311.2211 14.39327560315360
ORBCOMM FM36            
1 25984U 99065E   25024.43918991  .00003460  00000+0  11928-2 0  9999
2 25984  45.0394  51.8031 0005551 290.9833  69.0421 14.37434779313731
ORBCOMM FM35            
1 25985U 99065F   25024.80683504  .00002842  00000+0  10066-2 0  9995
2 25985  45.0397  54.0060 0002981 357.1003   2.9828 14.36521368314166
ORBCOMM FM34            
1 25986U 99065G   25024.49847873  .00002930  00000+0  10352-2 0  9998
2 25986  45.0393  55.9805 0005050 317.5996  42.4462 14.36567804314237
ORBCOMM FM38            
1 33060U 08031A   25024.69525106  .00004995  00000+0  67693-3 0  9991
2 33060  48.4396 278.5791 0005639 142.6732 217.4575 14.80218171893481
ORBCOMM FM41            
1 33061U 08031B   25024.87159896  .00004222  00000+0  58159-3 0  9991
2 33061  48.4437 285.0473 0004737 129.0304 278.3195 14.79846897893002
ORBCOMM FM29            
1 33062U 08031C   25024.86180719  .00004329  00000+0  59503-3 0  9991
2 33062  48.4391 293.0497 0006485 126.5538 273.1489 14.79891096892919
ORBCOMM FM39            
1 33063U 08031D   25024.88564657  .00003976  00000+0  56584-3 0  9994
2 33063  48.4410 315.7003 0007182  99.1938 260.9789 14.78579676892587
